{"type": "FeatureCollection", "features": [{"type": "Feature", "properties": {"norad_id": 22490, "name": "SCD 1", "group": "resource", "lat": -2.2989509474136445, "lon": 37.32177991803002, "alt_km": 745.5950661534016, "timestamp": "2025-12-23T11:34:47.838375+00:00", "meta": {"OBJECT_NAME": "SCD 1", "OBJECT_ID": "1993-009B", "EPOCH": "2025-12-22T16:44:45.352896", "MEAN_MOTION": 14.46005268, "ECCENTRICITY": 0.0042167, "INCLINATION": 24.9679, "RA_OF_ASC_NODE": 217.2144, "ARG_OF_PERICENTER": 70.2904, "MEAN_ANOMALY": 341.2341, "EPHEMERIS_TYPE": 0, "CLASSIFICATION_TYPE": "U", "NORAD_CAT_ID": 22490, "ELEMENT_SET_NO": 999, "REV_AT_EPOCH": 73554, "BSTAR": 7.1091153e-05, "MEAN_MOTION_DOT": 4.45e-06, "MEAN_MOTION_DDOT": 0}, "tle": {"line1": "1 22490U 93009B   25356.69774714  .00000445  00000+0  71091-4 0  9998", "line2": "2 22490  24.9679 217.2144 0042167  70.2904 341.2341 14.46005268735547"}}, "geometry": {"type": "Point", "coordinates": [37.32177991803002, -2.2989509474136445]}}, {"type": "Feature", "properties": {"norad_id": 25397, "name": "TECHSAT 1B (GO-32)", "group": "resource", "lat": 34.880374419715835, "lon": 167.2810376243154, "alt_km": 808.5448607378803, "timestamp": "2025-12-23T11:34:47.838407+00:00", "meta": {"OBJECT_NAME": "TECHSAT 1B (GO-32)", "OBJECT_ID": "1998-043D", "EPOCH": "2025-12-22T16:21:32.526144", "MEAN_MOTION": 14.24379632, "ECCENTRICITY": 0.00017569, "INCLINATION": 98.9931, "RA_OF_ASC_NODE": 340.1236, "ARG_OF_PERICENTER": 41.5231, "MEAN_ANOMALY": 318.608, "EPHEMERIS_TYPE": 0, "CLASSIFICATION_TYPE": "U", "NORAD_CAT_ID": 25397, "ELEMENT_SET_NO": 999, "REV_AT_EPOCH": 42620, "BSTAR": 4.7894627e-05, "MEAN_MOTION_DOT": 6.4e-07, "MEAN_MOTION_DDOT": 0}, "tle": {"line1": "1 25397U 98043D   25356.68162646  .00000064  00000+0  47895-4 0  9996", "line2": "2 25397  98.9931 340.1236 0001756  41.5231 318.6080 14.24379632426202"}}, "geometry": {"type": "Point", "coordinates": [167.2810376243154, 34.880374419715835]}}, {"type": "Feature", "properties": {"norad_id": 25504, "name": "SCD 2", "group": "resource", "lat": -6.172181307149279, "lon": -90.9205943217551, "alt_km": 746.8172236325654, "timestamp": "2025-12-23T11:34:47.838419+00:00", "meta": {"OBJECT_NAME": "SCD 2", "OBJECT_ID": "1998-060A", "EPOCH": "2025-12-22T13:43:51.661344", "MEAN_MOTION": 14.45428389, "ECCENTRICITY": 0.00170381, "INCLINATION": 24.995, "RA_OF_ASC_NODE": 81.268, "ARG_OF_PERICENTER": 57.3141, "MEAN_ANOMALY": 70.4523, "EPHEMERIS_TYPE": 0, "CLASSIFICATION_TYPE": "U", "NORAD_CAT_ID": 25504, "ELEMENT_SET_NO": 999, "REV_AT_EPOCH": 43474, "BSTAR": 6.2921219e-05, "MEAN_MOTION_DOT": 4.07e-06, "MEAN_MOTION_DDOT": 0}, "tle": {"line1": "1 25504U 98060A   25356.57212571  .00000407  00000+0  62921-4 0  9994", "line2": "2 25504  24.9950  81.2680 0017038  57.3141  70.4523 14.45428389434743"}}, "geometry": {"type": "Point", "coordinates": [-90.9205943217551, -6.172181307149279]}}, {"type": "Feature", "properties": {"norad_id": 25757, "name": "DLR-TUBSAT", "group": "resource", "lat": 2.982541854075414, "lon": -18.127052097005482, "alt_km": 729.7666307334648, "timestamp": "2025-12-23T11:34:47.838430+00:00", "meta": {"OBJECT_NAME": "DLR-TUBSAT", "OBJECT_ID": "1999-029B", "EPOCH": "2025-12-17T13:22:10.787520", "MEAN_MOTION": 14.52359578, "ECCENTRICITY": 0.00141996, "INCLINATION": 98.6566, "RA_OF_ASC_NODE": 336.2196, "ARG_OF_PERICENTER": 177.8976, "MEAN_ANOMALY": 182.2281, "EPHEMERIS_TYPE": 0, "CLASSIFICATION_TYPE": "U", "NORAD_CAT_ID": 25757, "ELEMENT_SET_NO": 999, "REV_AT_EPOCH": 40688, "BSTAR": 3.7650132e-05, "MEAN_MOTION_DOT": 1.05e-06, "MEAN_MOTION_DDOT": 0}, "tle": {"line1": "1 25757U 99029B   25351.55706930  .00000105  00000+0  37650-4 0  9996", "line2": "2 25757  98.6566 336.2196 0014199 177.8976 182.2281 14.52359578406886"}}, "geometry": {"type": "Point", "coordinates": [-18.127052097005482, 2.982541854075414]}}, {"type": "Feature", "properties": {"norad_id": 25994, "name": "TERRA", "group": "resource", "lat": 35.39742391485314, "lon": 43.056069181581535, "alt_km": 685.8718275467763, "timestamp": "2025-12-23T11:34:47.838440+00:00", "meta": {"OBJECT_NAME": "TERRA", "OBJECT_ID": "1999-068A", "EPOCH": "2025-12-23T01:49:01.909056", "MEAN_MOTION": 14.60913111, "ECCENTRICITY": 0.0003472, "INCLINATION": 97.9733, "RA_OF_ASC_NODE": 48.3802, "ARG_OF_PERICENTER": 73.79, "MEAN_ANOMALY": 344.0181, "EPHEMERIS_TYPE": 0, "CLASSIFICATION_TYPE": "U", "NORAD_CAT_ID": 25994, "ELEMENT_SET_NO": 999, "REV_AT_EPOCH": 38389, "BSTAR": 0.00010782, "MEAN_MOTION_DOT": 4.83e-06, "MEAN_MOTION_DDOT": 0}, "tle": {"line1": "1 25994U 99068A   25357.07571654  .00000483  00000+0  10782-3 0  9993", "line2": "2 25994  97.9733  48.3802 0003472  73.7900 344.0181 14.60913111383895"}}, "geometry": {"type": "Point", "coordinates": [43.056069181581535, 35.39742391485314]}}, {"type": "Feature", "properties": {"norad_id": 27004, "name": "MAROC-TUBSAT", "group": "resource", "lat": 54.03081135225542, "lon": -0.11936998632039557, "alt_km": 997.5825005514971, "timestamp": "2025-12-23T11:34:47.838451+00:00", "meta": {"OBJECT_NAME": "MAROC-TUBSAT", "OBJECT_ID": "2001-056D", "EPOCH": "2025-12-22T08:59:06.016416", "MEAN_MOTION": 13.70253386, "ECCENTRICITY": 0.00192156, "INCLINATION": 99.7916, "RA_OF_ASC_NODE": 164.9882, "ARG_OF_PERICENTER": 234.5504, "MEAN_ANOMALY": 186.9487, "EPHEMERIS_TYPE": 0, "CLASSIFICATION_TYPE": "U", "NORAD_CAT_ID": 27004, "ELEMENT_SET_NO": 999, "REV_AT_EPOCH": 20197, "BSTAR": 2.5339706e-05, "MEAN_MOTION_DOT": -2.4e-07, "MEAN_MOTION_DDOT": 0}, "tle": {"line1": "1 27004U 01056D   25356.37437519 -.00000024  00000+0  25340-4 0  9999", "line2": "2 27004  99.7916 164.9882 0019215 234.5504 186.9487 13.70253386201975"}}, "geometry": {"type": "Point", "coordinates": [-0.11936998632039557, 54.03081135225542]}}, {"type": "Feature", "properties": {"norad_id": 27424, "name": "AQUA", "group": "resource", "lat": -52.68905789816239, "lon": -30.275828967797814, "alt_km": 695.2513362392538, "timestamp": "2025-12-23T11:34:47.838461+00:00", "meta": {"OBJECT_NAME": "AQUA", "OBJECT_ID": "2002-022A", "EPOCH": "2025-12-23T02:23:06.539136", "MEAN_MOTION": 14.61823033, "ECCENTRICITY": 0.0001484, "INCLINATION": 98.4053, "RA_OF_ASC_NODE": 318.1475, "ARG_OF_PERICENTER": 109.241, "MEAN_ANOMALY": 342.3415, "EPHEMERIS_TYPE": 0, "CLASSIFICATION_TYPE": "U", "NORAD_CAT_ID": 27424, "ELEMENT_SET_NO": 999, "REV_AT_EPOCH": 25754, "BSTAR": 0.00019103, "MEAN_MOTION_DOT": 9.05e-06, "MEAN_MOTION_DDOT": 0}, "tle": {"line1": "1 27424U 02022A   25357.09938124  .00000905  00000+0  19103-3 0  9993", "line2": "2 27424  98.4053 318.1475 0001484 109.2410 342.3415 14.61823033257549"}}, "geometry": {"type": "Point", "coordinates": [-30.275828967797814, -52.68905789816239]}}, {"type": "Feature", "properties": {"norad_id": 28051, "name": "IRS-P6 (RESOURCESAT-1)", "group": "resource", "lat": -74.98150304216979, "lon": -175.19228838225047, "alt_km": 793.4404280782246, "timestamp": "2025-12-23T11:34:47.838470+00:00", "meta": {"OBJECT_NAME": "IRS-P6 (RESOURCESAT-1)", "OBJECT_ID": "2003-046A", "EPOCH": "2025-12-23T05:43:54.258816", "MEAN_MOTION": 14.36079503, "ECCENTRICITY": 0.0064791, "INCLINATION": 98.2162, "RA_OF_ASC_NODE": 37.1588, "ARG_OF_PERICENTER": 149.309, "MEAN_ANOMALY": 288.3017, "EPHEMERIS_TYPE": 0, "CLASSIFICATION_TYPE": "U", "NORAD_CAT_ID": 28051, "ELEMENT_SET_NO": 999, "REV_AT_EPOCH": 15527, "BSTAR": 9.8492e-05, "MEAN_MOTION_DOT": 2.53e-06, "MEAN_MOTION_DDOT": 0}, "tle": {"line1": "1 28051U 03046A   25357.23882244  .00000253  00000+0  98492-4 0  9999", "line2": "2 28051  98.2162  37.1588 0064791 149.3090 288.3017 14.36079503155278"}}, "geometry": {"type": "Point", "coordinates": [-175.19228838225047, -74.98150304216979]}}, {"type": "Feature", "properties": {"norad_id": 28220, "name": "SHIYAN-1 (SY-1)", "group": "resource", "lat": 82.06786117123748, "lon": -35.73664118478922, "alt_km": 476.5799330894715, "timestamp": "2025-12-23T11:34:47.838480+00:00", "meta": {"OBJECT_NAME": "SHIYAN-1 (SY-1)", "OBJECT_ID": "2004-012A", "EPOCH": "2025-12-22T14:45:27.777312", "MEAN_MOTION": 15.28385055, "ECCENTRICITY": 0.0005157, "INCLINATION": 97.892, "RA_OF_ASC_NODE": 58.737, "ARG_OF_PERICENTER": 284.0622, "MEAN_ANOMALY": 76.0043, "EPHEMERIS_TYPE": 0, "CLASSIFICATION_TYPE": "U", "NORAD_CAT_ID": 28220, "ELEMENT_SET_NO": 999, "REV_AT_EPOCH": 18407, "BSTAR": 0.00053103, "MEAN_MOTION_DOT": 0.00014614, "MEAN_MOTION_DDOT": 0}, "tle": {"line1": "1 28220U 04012A   25356.61490483  .00014614  00000+0  53103-3 0  9997", "line2": "2 28220  97.8920  58.7370 0005157 284.0622  76.0043 15.28385055184075"}}, "geometry": {"type": "Point", "coordinates": [-35.73664118478922, 82.06786117123748]}}, {"type": "Feature", "properties": {"norad_id": 28376, "name": "AURA", "group": "resource", "lat": 43.88291202490195, "lon": -60.330975633980344, "alt_km": 685.6604825083514, "timestamp": "2025-12-23T11:34:47.838490+00:00", "meta": {"OBJECT_NAME": "AURA", "OBJECT_ID": "2004-026A", "EPOCH": "2025-12-23T03:09:30.660768", "MEAN_MOTION": 14.60969302, "ECCENTRICITY": 0.0001403, "INCLINATION": 98.3201, "RA_OF_ASC_NODE": 307.4072, "ARG_OF_PERICENTER": 91.9299, "MEAN_ANOMALY": 268.2062, "EPHEMERIS_TYPE": 0, "CLASSIFICATION_TYPE": "U", "NORAD_CAT_ID": 28376, "ELEMENT_SET_NO": 999, "REV_AT_EPOCH": 14050, "BSTAR": 0.00021273, "MEAN_MOTION_DOT": 9.95e-06, "MEAN_MOTION_DDOT": 0}, "tle": {"line1": "1 28376U 04026A   25357.13160487  .00000995  00000+0  21273-3 0  9990", "line2": "2 28376  98.3201 307.4072 0001403  91.9299 268.2062 14.60969302140507"}}, "geometry": {"type": "Point", "coordinates": [-60.330975633980344, 43.88291202490195]}}]}